{
  "norad_id": 62821,
  "name": "STARLINK-32782",
  "history": [
    {
      "epoch": "2026-04-17T18:29:07.033056Z",
      "apogee_km": 476.7196573903202,
      "perigee_km": 473.7421431723642,
      "latitude_deg": 2.4679146086492555e-05,
      "longitude_deg": 4.758407933032046,
      "height_km": 475.8351903790305,
      "semi_major_axis_km": 6853.3679002813415,
      "eccentricity": 0.00021723,
      "inclination_deg": 53.1581,
      "raan_deg": 127.9365,
      "arg_perigee_deg": 78.6751,
      "mean_anomaly_deg": 281.4494,
      "mean_motion_rev_day": 15.30194698
    },
    {
      "epoch": "2026-04-18T17:59:54.301920Z",
      "apogee_km": 475.85282101920075,
      "perigee_km": 474.4931243206238,
      "latitude_deg": -3.13455592898945e-05,
      "longitude_deg": 6.546662902804143,
      "height_km": 475.9458132444807,
      "semi_major_axis_km": 6853.309972669912,
      "eccentricity": 9.92e-05,
      "inclination_deg": 53.1578,
      "raan_deg": 123.3874,
      "arg_perigee_deg": 79.37,
      "mean_anomaly_deg": 280.7412,
      "mean_motion_rev_day": 15.30214099
    },
    {
      "epoch": "2026-04-19T17:30:42.598080Z",
      "apogee_km": 476.1048137021771,
      "perigee_km": 474.3064965894664,
      "latitude_deg": 3.565077926852804e-05,
      "longitude_deg": 8.327116237092882,
      "height_km": 475.88705767996504,
      "semi_major_axis_km": 6853.3426551458215,
      "eccentricity": 0.0001312,
      "inclination_deg": 53.1575,
      "raan_deg": 118.8347,
      "arg_perigee_deg": 76.074,
      "mean_anomaly_deg": 284.0407,
      "mean_motion_rev_day": 15.30203153
    },
    {
      "epoch": "2026-04-20T07:37:11.604288Z",
      "apogee_km": 476.06086544963,
      "perigee_km": 474.42976045914656,
      "latitude_deg": -1.2201636819527516e-05,
      "longitude_deg": 153.39912301528722,
      "height_km": 476.00891883433286,
      "semi_major_axis_km": 6853.382312954388,
      "eccentricity": 0.000119,
      "inclination_deg": 53.1577,
      "raan_deg": 116.107,
      "arg_perigee_deg": 80.5179,
      "mean_anomaly_deg": 279.5956,
      "mean_motion_rev_day": 15.30189871
    },
    {
      "epoch": "2026-04-21T16:32:18.367008Z",
      "apogee_km": 476.3005548508636,
      "perigee_km": 474.0978925885611,
      "latitude_deg": -3.401115888176988e-05,
      "longitude_deg": 11.893908838510349,
      "height_km": 475.43296249428016,
      "semi_major_axis_km": 6853.3362237197125,
      "eccentricity": 0.0001607,
      "inclination_deg": 53.158,
      "raan_deg": 109.7319,
      "arg_perigee_deg": 52.9135,
      "mean_anomaly_deg": 307.2012,
      "mean_motion_rev_day": 15.30205307
    },
    {
      "epoch": "2026-04-22T03:30:40.672512Z",
      "apogee_km": 475.9557510626637,
      "perigee_km": 474.4726858589902,
      "latitude_deg": 1.3076359487029117e-05,
      "longitude_deg": -155.27083630182773,
      "height_km": 475.9558103202429,
      "semi_major_axis_km": 6853.351218460827,
      "eccentricity": 0.0001082,
      "inclination_deg": 53.157,
      "raan_deg": 107.6107,
      "arg_perigee_deg": 77.8201,
      "mean_anomaly_deg": 282.2921,
      "mean_motion_rev_day": 15.30200285
    },
    {
      "epoch": "2026-04-23T10:51:43.776864Z",
      "apogee_km": 475.7609591672517,
      "perigee_km": 474.67703238296053,
      "latitude_deg": -1.7168354013008174e-05,
      "longitude_deg": 87.1099693193693,
      "height_km": 476.1442438843282,
      "semi_major_axis_km": 6853.355995775106,
      "eccentricity": 7.908e-05,
      "inclination_deg": 53.1583,
      "raan_deg": 101.542,
      "arg_perigee_deg": 92.8251,
      "mean_anomaly_deg": 267.284,
      "mean_motion_rev_day": 15.30198685
    },
    {
      "epoch": "2026-04-24T05:40:22.890720Z",
      "apogee_km": 475.8417090309258,
      "perigee_km": 474.5957689575762,
      "latitude_deg": -3.4902242421959445e-05,
      "longitude_deg": 160.53914574711624,
      "height_km": 476.0618326574141,
      "semi_major_axis_km": 6853.355738994251,
      "eccentricity": 9.09e-05,
      "inclination_deg": 53.1581,
      "raan_deg": 97.9067,
      "arg_perigee_deg": 84.9097,
      "mean_anomaly_deg": 275.2007,
      "mean_motion_rev_day": 15.30198771
    },
    {
      "epoch": "2026-04-25T09:53:20.700960Z",
      "apogee_km": 476.13475186247524,
      "perigee_km": 474.2254177226523,
      "latitude_deg": -2.8181080033412372e-05,
      "longitude_deg": 90.67728170042697,
      "height_km": 476.338367274603,
      "semi_major_axis_km": 6853.317084792563,
      "eccentricity": 0.0001393,
      "inclination_deg": 53.1588,
      "raan_deg": 92.4445,
      "arg_perigee_deg": 105.8307,
      "mean_anomaly_deg": 254.2847,
      "mean_motion_rev_day": 15.30211717
    },
    {
      "epoch": "2026-04-26T21:56:33.777312Z",
      "apogee_km": 476.46977513433194,
      "perigee_km": 473.96569638098026,
      "latitude_deg": -4.131288721418846e-05,
      "longitude_deg": -98.5884824758626,
      "height_km": 476.376270224781,
      "semi_major_axis_km": 6853.354735757656,
      "eccentricity": 0.00018269,
      "inclination_deg": 53.1589,
      "raan_deg": 85.4639,
      "arg_perigee_deg": 102.0463,
      "mean_anomaly_deg": 258.0742,
      "mean_motion_rev_day": 15.30199107
    }
  ]
}